UNKNOWN                 
1 81317U          26005.08762291  .00000169  00000+0  38844-3 0  9993
2 81317  67.1369 125.2217 0211226  17.6258 167.1203 13.38023899591750
UNKNOWN                 
1 81323U          26004.58863471  .00027214  00000+0  34438-2 0  9990
2 81323  65.7522 324.9278 0342985 301.3657  55.4300 14.48054815116361
UNKNOWN                 
1 81329U          26016.10616412  .00001499  00000+0  55955-3 0  9993
2 81329  65.8200  51.5698 0833131  14.3652 347.9578 13.22247093582629
UNKNOWN                 
1 81343U          26016.43414464  .00004315  00000+0  30715-3 0  9995
2 81343  85.8717 180.8084 0010370 128.1256 232.0915 15.04322568459536
UNKNOWN                 
1 81359U          26012.86903957  .00000596  00000+0  62294-3 0  9999
2 81359  66.7991 337.4846 0119755 303.1575  55.8054 13.78891903609778
UNKNOWN                 
1 81366U          26013.31158343  .00000953  00000+0  36751-3 0  9995
2 81366  65.8843 357.2959 0710345  66.2362 301.1517 13.45200725 70201
UNKNOWN                 
1 81371U          26009.53885511  .00003981  00000+0  64182-3 0  9997
2 81371  98.8120 113.1964 0069242 277.9514  81.3836 14.70526212645928
UNKNOWN                 
1 81386U          26016.45111938  .00003263  00000+0  10774-2 0  9997
2 81386  71.0482 281.2114 0085710  28.9980 331.5876 14.36689610629224
UNKNOWN                 
1 81390U          26012.98891966 -.00000050  00000+0 -28429-5 0  9994
2 81390 103.1090 268.7911 0168076  88.2578 273.7721 12.35627696503955
UNKNOWN                 
1 81392U          26016.22574252  .00002253  00000+0  21332-2 0  9991
2 81392 100.4009  12.9346 0042561 305.9981  70.7024 13.81934059606945
UNKNOWN                 
1 81405U          26003.38107143  .00002710  00000+0  20508-2 0  9992
2 81405  99.4680  56.9006 0161190 166.1515 194.4141 13.88959115564802
UNKNOWN                 
1 81406U          25354.93559605  .00000948  00000+0  39727-3 0  9991
2 81406  65.8190 136.2966 0869929 316.2525  37.2633 13.12175268534754
