CCSDS_OMM_VERS = 2.0
CREATION_DATE  = 
ORIGINATOR     = 

OBJECT_NAME    = UNKNOWN
OBJECT_ID      = 
CENTER_NAME    = EARTH
REF_FRAME      = TEME
TIME_SYSTEM    = UTC
MEAN_ELEMENT_THEORY = SGP/SGP4

EPOCH          = 2026-01-05T02:06:10.619424
MEAN_MOTION    = 13.38023899
ECCENTRICITY   = .0211226
INCLINATION    = 67.1369
RA_OF_ASC_NODE = 125.2217
ARG_OF_PERICENTER = 17.6258
MEAN_ANOMALY   = 167.1203

EPHEMERIS_TYPE = 0
CLASSIFICATION_TYPE = U
NORAD_CAT_ID   = 81317
ELEMENT_SET_NO = 999
REV_AT_EPOCH   = 59175
BSTAR          = .38844E-3
MEAN_MOTION_DOT = .169E-5
MEAN_MOTION_DDOT = 0

CCSDS_OMM_VERS = 2.0
CREATION_DATE  = 
ORIGINATOR     = 

OBJECT_NAME    = UNKNOWN
OBJECT_ID      = 
CENTER_NAME    = EARTH
REF_FRAME      = TEME
TIME_SYSTEM    = UTC
MEAN_ELEMENT_THEORY = SGP/SGP4

EPOCH          = 2026-01-04T14:07:38.038944
MEAN_MOTION    = 14.48054815
ECCENTRICITY   = .0342985
INCLINATION    = 65.7522
RA_OF_ASC_NODE = 324.9278
ARG_OF_PERICENTER = 301.3657
MEAN_ANOMALY   = 55.4300

EPHEMERIS_TYPE = 0
CLASSIFICATION_TYPE = U
NORAD_CAT_ID   = 81323
ELEMENT_SET_NO = 999
REV_AT_EPOCH   = 11636
BSTAR          = .34438E-2
MEAN_MOTION_DOT = .27214E-3
MEAN_MOTION_DDOT = 0

CCSDS_OMM_VERS = 2.0
CREATION_DATE  = 
ORIGINATOR     = 

OBJECT_NAME    = UNKNOWN
OBJECT_ID      = 
CENTER_NAME    = EARTH
REF_FRAME      = TEME
TIME_SYSTEM    = UTC
MEAN_ELEMENT_THEORY = SGP/SGP4

EPOCH          = 2026-01-16T02:32:52.579968
MEAN_MOTION    = 13.22247093
ECCENTRICITY   = .0833131
INCLINATION    = 65.8200
RA_OF_ASC_NODE = 51.5698
ARG_OF_PERICENTER = 14.3652
MEAN_ANOMALY   = 347.9578

EPHEMERIS_TYPE = 0
CLASSIFICATION_TYPE = U
NORAD_CAT_ID   = 81329
ELEMENT_SET_NO = 999
REV_AT_EPOCH   = 58262
BSTAR          = .55955E-3
MEAN_MOTION_DOT = .1499E-4
MEAN_MOTION_DDOT = 0

CCSDS_OMM_VERS = 2.0
CREATION_DATE  = 
ORIGINATOR     = 

OBJECT_NAME    = UNKNOWN
OBJECT_ID      = 
CENTER_NAME    = EARTH
REF_FRAME      = TEME
TIME_SYSTEM    = UTC
MEAN_ELEMENT_THEORY = SGP/SGP4

EPOCH          = 2026-01-16T10:25:10.096896
MEAN_MOTION    = 15.04322568
ECCENTRICITY   = .001037
INCLINATION    = 85.8717
RA_OF_ASC_NODE = 180.8084
ARG_OF_PERICENTER = 128.1256
MEAN_ANOMALY   = 232.0915

EPHEMERIS_TYPE = 0
CLASSIFICATION_TYPE = U
NORAD_CAT_ID   = 81343
ELEMENT_SET_NO = 999
REV_AT_EPOCH   = 45953
BSTAR          = .30715E-3
MEAN_MOTION_DOT = .4315E-4
MEAN_MOTION_DDOT = 0

CCSDS_OMM_VERS = 2.0
CREATION_DATE  = 
ORIGINATOR     = 

OBJECT_NAME    = UNKNOWN
OBJECT_ID      = 
CENTER_NAME    = EARTH
REF_FRAME      = TEME
TIME_SYSTEM    = UTC
MEAN_ELEMENT_THEORY = SGP/SGP4

EPOCH          = 2026-01-12T20:51:25.018848
MEAN_MOTION    = 13.78891903
ECCENTRICITY   = .0119755
INCLINATION    = 66.7991
RA_OF_ASC_NODE = 337.4846
ARG_OF_PERICENTER = 303.1575
MEAN_ANOMALY   = 55.8054

EPHEMERIS_TYPE = 0
CLASSIFICATION_TYPE = U
NORAD_CAT_ID   = 81359
ELEMENT_SET_NO = 999
REV_AT_EPOCH   = 60977
BSTAR          = .62294E-3
MEAN_MOTION_DOT = .596E-5
MEAN_MOTION_DDOT = 0

CCSDS_OMM_VERS = 2.0
CREATION_DATE  = 
ORIGINATOR     = 

OBJECT_NAME    = UNKNOWN
OBJECT_ID      = 
CENTER_NAME    = EARTH
REF_FRAME      = TEME
TIME_SYSTEM    = UTC
MEAN_ELEMENT_THEORY = SGP/SGP4

EPOCH          = 2026-01-13T07:28:40.808352
MEAN_MOTION    = 13.45200725
ECCENTRICITY   = .0710345
INCLINATION    = 65.8843
RA_OF_ASC_NODE = 357.2959
ARG_OF_PERICENTER = 66.2362
MEAN_ANOMALY   = 301.1517

EPHEMERIS_TYPE = 0
CLASSIFICATION_TYPE = U
NORAD_CAT_ID   = 81366
ELEMENT_SET_NO = 999
REV_AT_EPOCH   = 7020
BSTAR          = .36751E-3
MEAN_MOTION_DOT = .953E-5
MEAN_MOTION_DDOT = 0

CCSDS_OMM_VERS = 2.0
CREATION_DATE  = 
ORIGINATOR     = 

OBJECT_NAME    = UNKNOWN
OBJECT_ID      = 
CENTER_NAME    = EARTH
REF_FRAME      = TEME
TIME_SYSTEM    = UTC
MEAN_ELEMENT_THEORY = SGP/SGP4

EPOCH          = 2026-01-09T12:55:57.081504
MEAN_MOTION    = 14.70526212
ECCENTRICITY   = .0069242
INCLINATION    = 98.8120
RA_OF_ASC_NODE = 113.1964
ARG_OF_PERICENTER = 277.9514
MEAN_ANOMALY   = 81.3836

EPHEMERIS_TYPE = 0
CLASSIFICATION_TYPE = U
NORAD_CAT_ID   = 81371
ELEMENT_SET_NO = 999
REV_AT_EPOCH   = 64592
BSTAR          = .64182E-3
MEAN_MOTION_DOT = .3981E-4
MEAN_MOTION_DDOT = 0

CCSDS_OMM_VERS = 2.0
CREATION_DATE  = 
ORIGINATOR     = 

OBJECT_NAME    = UNKNOWN
OBJECT_ID      = 
CENTER_NAME    = EARTH
REF_FRAME      = TEME
TIME_SYSTEM    = UTC
MEAN_ELEMENT_THEORY = SGP/SGP4

EPOCH          = 2026-01-16T10:49:36.714432
MEAN_MOTION    = 14.36689610
ECCENTRICITY   = .008571
INCLINATION    = 71.0482
RA_OF_ASC_NODE = 281.2114
ARG_OF_PERICENTER = 28.9980
MEAN_ANOMALY   = 331.5876

EPHEMERIS_TYPE = 0
CLASSIFICATION_TYPE = U
NORAD_CAT_ID   = 81386
ELEMENT_SET_NO = 999
REV_AT_EPOCH   = 62922
BSTAR          = .10774E-2
MEAN_MOTION_DOT = .3263E-4
MEAN_MOTION_DDOT = 0

CCSDS_OMM_VERS = 2.0
CREATION_DATE  = 
ORIGINATOR     = 

OBJECT_NAME    = UNKNOWN
OBJECT_ID      = 
CENTER_NAME    = EARTH
REF_FRAME      = TEME
TIME_SYSTEM    = UTC
MEAN_ELEMENT_THEORY = SGP/SGP4

EPOCH          = 2026-01-12T23:44:02.658624
MEAN_MOTION    = 12.35627696
ECCENTRICITY   = .0168076
INCLINATION    = 103.1090
RA_OF_ASC_NODE = 268.7911
ARG_OF_PERICENTER = 88.2578
MEAN_ANOMALY   = 273.7721

EPHEMERIS_TYPE = 0
CLASSIFICATION_TYPE = U
NORAD_CAT_ID   = 81390
ELEMENT_SET_NO = 999
REV_AT_EPOCH   = 50395
BSTAR          = -.28429E-5
MEAN_MOTION_DOT = -.5E-6
MEAN_MOTION_DDOT = 0

CCSDS_OMM_VERS = 2.0
CREATION_DATE  = 
ORIGINATOR     = 

OBJECT_NAME    = UNKNOWN
OBJECT_ID      = 
CENTER_NAME    = EARTH
REF_FRAME      = TEME
TIME_SYSTEM    = UTC
MEAN_ELEMENT_THEORY = SGP/SGP4

EPOCH          = 2026-01-16T05:25:04.153728
MEAN_MOTION    = 13.81934059
ECCENTRICITY   = .0042561
INCLINATION    = 100.4009
RA_OF_ASC_NODE = 12.9346
ARG_OF_PERICENTER = 305.9981
MEAN_ANOMALY   = 70.7024

EPHEMERIS_TYPE = 0
CLASSIFICATION_TYPE = U
NORAD_CAT_ID   = 81392
ELEMENT_SET_NO = 999
REV_AT_EPOCH   = 60694
BSTAR          = .21332E-2
MEAN_MOTION_DOT = .2253E-4
MEAN_MOTION_DDOT = 0

CCSDS_OMM_VERS = 2.0
CREATION_DATE  = 
ORIGINATOR     = 

OBJECT_NAME    = UNKNOWN
OBJECT_ID      = 
CENTER_NAME    = EARTH
REF_FRAME      = TEME
TIME_SYSTEM    = UTC
MEAN_ELEMENT_THEORY = SGP/SGP4

EPOCH          = 2026-01-03T09:08:44.571552
MEAN_MOTION    = 13.88959115
ECCENTRICITY   = .016119
INCLINATION    = 99.4680
RA_OF_ASC_NODE = 56.9006
ARG_OF_PERICENTER = 166.1515
MEAN_ANOMALY   = 194.4141

EPHEMERIS_TYPE = 0
CLASSIFICATION_TYPE = U
NORAD_CAT_ID   = 81405
ELEMENT_SET_NO = 999
REV_AT_EPOCH   = 56480
BSTAR          = .20508E-2
MEAN_MOTION_DOT = .271E-4
MEAN_MOTION_DDOT = 0

CCSDS_OMM_VERS = 2.0
CREATION_DATE  = 
ORIGINATOR     = 

OBJECT_NAME    = UNKNOWN
OBJECT_ID      = 
CENTER_NAME    = EARTH
REF_FRAME      = TEME
TIME_SYSTEM    = UTC
MEAN_ELEMENT_THEORY = SGP/SGP4

EPOCH          = 2025-12-20T22:27:15.498720
MEAN_MOTION    = 13.12175268
ECCENTRICITY   = .0869929
INCLINATION    = 65.8190
RA_OF_ASC_NODE = 136.2966
ARG_OF_PERICENTER = 316.2525
MEAN_ANOMALY   = 37.2633

EPHEMERIS_TYPE = 0
CLASSIFICATION_TYPE = U
NORAD_CAT_ID   = 81406
ELEMENT_SET_NO = 999
REV_AT_EPOCH   = 53475
BSTAR          = .39727E-3
MEAN_MOTION_DOT = .948E-5
MEAN_MOTION_DDOT = 0

